ONEWEB-0670             
1 55829U 23029AK  24042.12604444  .00000109  00000+0  26047-3 0  9993
2 55829  87.8943 100.3141 0002509 104.8136 255.3272 13.14502552 47521
ONEWEB-0671             
1 55830U 23029AL  24042.18210424  .00000065  00000+0  12905-3 0  9991
2 55830  87.9179 115.5785 0002196 101.7802 258.3577 13.19723775 46555
ONEWEB-0672             
1 55831U 23029AM  24042.51156758 -.00000214  00000+0 -55914-3 0  9993
2 55831  87.9145  84.9386 0001518 100.1359 259.9946 13.20771057 48740
ONEWEB-0673             
1 55832U 23029AN  24042.15842636  .00001010  00000+0  24899-2 0  9991
2 55832  87.9171 115.5516 0002089  96.9980 263.1390 13.19729459 46578
ONEWEB-0674             
1 55833U 23029AP  24041.71372926 -.00000105  00000+0 -31750-3 0  9994
2 55833  87.8941 100.4080 0002468 109.3644 250.7752 13.14502916 46766
ONEWEB-0675             
1 55834U 23029AQ  24042.25001267 -.00000093  00000+0 -26428-3 0  9994
2 55834  87.9181 115.5609 0001549  92.9691 267.1619 13.19726073 46600
ONEWEB-0720             
1 55835U 23029AR  24041.71139958  .00000152  00000+0  34824-3 0  9997
2 55835  87.9180 115.6707 0002341  90.6738 269.4663 13.19726931 45749
ONEWEB-0537             
1 56046U 23043A   24042.48087501 -.00000029  00000+0 -11038-3 0  9996
2 56046  87.9046  39.2645 0001480  82.2567 277.8732 13.16595975 47142
